GLOBALSTAR M035         
1 25851U 99037A   25303.50089877 -.00000091  00000+0 -10369-2 0  9998
2 25851  51.9914 113.1995 0013319 195.9970 196.9293 11.04540358111214
GLOBALSTAR M032         
1 25852U 99037B   25303.21054190  .00000020  00000+0  27789-2 0  9991
2 25852  51.9957 289.7353 0012598  33.9339 326.2264 11.19064581149906
GLOBALSTAR M051         
1 25853U 99037C   25303.69925323 -.00000045  00000+0  66471-3 0  9999
2 25853  51.9791  73.9805 0001323 107.4083 252.6872 11.42205822147877
GLOBALSTAR M030         
1 25854U 99037D   25303.94277307 -.00000114  00000+0 -83225-3 0  9994
2 25854  51.9870 230.8694 0002964 302.1080  57.9449 11.55112964165738
GLOBALSTAR M048         
1 25872U 99041A   25303.54411468 -.00000066  00000+0  10524-3 0  9990
2 25872  51.9407  14.6256 0013429  61.1604  77.0089 11.33859556140331
GLOBALSTAR M026         
1 25873U 99041B   25303.78223223 -.00000061  00000+0  12695-3 0  9993
2 25873  52.0006 229.1031 0001834 116.3963 255.8375 11.06851014163500
GLOBALSTAR M043         
1 25874U 99041C   25303.26493810 -.00000053  00000+0  44249-3 0  9999
2 25874  51.9360 128.3140 0013543 176.6902 354.2500 11.25696558138085
GLOBALSTAR M028         
1 25875U 99041D   25302.98474281 -.00000078  00000+0  14258-3 0  9993
2 25875  51.9597 151.1212 0063530   5.1379 355.0122 12.50590593207040
